{"type": "FeatureCollection", "features": [ {"type": "Feature", "properties": {"norad_id": 41335, "name": "SENTINEL-3A", "group": "resource", "lat": 59.205224450483115, "lon": -109.37918806506724, "alt_km": 796.3348803801609, "timestamp": "2025-12-16T21:38:56.827065+00:00", "meta": {"OBJECT_NAME": "SENTINEL-3A", "OBJECT_ID": "2016-011A", "EPOCH": "2025-12-16T07:37:31.800288", "MEAN_MOTION": 14.26732087, "ECCENTRICITY": 9.273e-05, "INCLINATION": 98.6312, "RA_OF_ASC_NODE": 55.2799, "ARG_OF_PERICENTER": 91.9224, "MEAN_ANOMALY": 268.2063, "EPHEMERIS_TYPE": 0, "CLASSIFICATION_TYPE": "U", "NORAD_CAT_ID": 41335, "ELEMENT_SET_NO": 999, "REV_AT_EPOCH": 51198, "BSTAR": 6.9805416e-05, "MEAN_MOTION_DOT": 1.25e-06, "MEAN_MOTION_DDOT": 0}, "tle": {"line1": "1 41335U 16011A   25350.31772917  .00000125  00000+0  69805-4 0  9996", "line2": "2 41335  98.6312  55.2799 0000927  91.9224 268.2063 14.26732087511980"}}, "geometry": {"type": "Point", "coordinates": [-109.37918806506724, 59.205224450483115]}}, {"type": "Feature", "properties": {"norad_id": 41556, "name": "ZIYUAN 3-2 (ZY 3-2)", "group": "resource", "lat": -28.02392621843776, "lon": -118.96792262074823, "alt_km": 501.52695945726555, "timestamp": "2025-12-16T21:38:56.827075+00:00", "meta": {"OBJECT_NAME": "ZIYUAN 3-2 (ZY 3-2)", "OBJECT_ID": "2016-033A", "EPOCH": "2025-12-16T08:06:20.428416", "MEAN_MOTION": 15.21109566, "ECCENTRICITY": 0.0010782, "INCLINATION": 97.4044, "RA_OF_ASC_NODE": 64.4463, "ARG_OF_PERICENTER": 232.7659, "MEAN_ANOMALY": 127.2593, "EPHEMERIS_TYPE": 0, "CLASSIFICATION_TYPE": "U", "NORAD_CAT_ID": 41556, "ELEMENT_SET_NO": 999, "REV_AT_EPOCH": 53018, "BSTAR": 0.00023156482, "MEAN_MOTION_DOT": 5.089e-05, "MEAN_MOTION_DDOT": 0}, "tle": {"line1": "1 41556U 16033A   25350.33773644  .00005089  00000+0  23156-3 0  9997", "line2": "2 41556  97.4044  64.4463 0010782 232.7659 127.2593 15.21109566530182"}}, "geometry": {"type": "Point", "coordinates": [-118.96792262074823, -28.02392621843776]}}, {"type": "Feature", "properties": {"norad_id": 41599, "name": "CARTOSAT-2C", "group": "resource", "lat": 59.75242586196982, "lon": -118.87352915483906, "alt_km": 499.9125912202735, "timestamp": "2025-12-16T21:38:56.827086+00:00", "meta": {"OBJECT_NAME": "CARTOSAT-2C", "OBJECT_ID": "2016-040A", "EPOCH": "2025-12-16T08:28:47.620416", "MEAN_MOTION": 15.19147818, "ECCENTRICITY": 0.00113899, "INCLINATION": 97.477, "RA_OF_ASC_NODE": 47.5672, "ARG_OF_PERICENTER": 51.5953, "MEAN_ANOMALY": 308.6302, "EPHEMERIS_TYPE": 0, "CLASSIFICATION_TYPE": "U", "NORAD_CAT_ID": 41599, "ELEMENT_SET_NO": 999, "REV_AT_EPOCH": 52595, "BSTAR": 0.00012635303, "MEAN_MOTION_DOT": 2.59e-05, "MEAN_MOTION_DDOT": 0}, "tle": {"line1": "1 41599U 16040A   25350.35332894  .00002590  00000+0  12635-3 0  9996", "line2": "2 41599  97.4770  47.5672 0011389  51.5953 308.6302 15.19147818525958"}}, "geometry": {"type": "Point", "coordinates": [-118.87352915483906, 59.75242586196982]}}, {"type": "Feature", "properties": {"norad_id": 41601, "name": "SKYSAT-C1", "group": "resource", "lat": 14.161352417019716, "lon": 25.909450223448417, "alt_km": 467.6286223609295, "timestamp": "2025-12-16T21:38:56.827096+00:00", "meta": {"OBJECT_NAME": "SKYSAT-C1", "OBJECT_ID": "2016-040C", "EPOCH": "2025-12-16T01:13:01.226496", "MEAN_MOTION": 15.32653167, "ECCENTRICITY": 0.00019853, "INCLINATION": 96.9827, "RA_OF_ASC_NODE": 26.8781, "ARG_OF_PERICENTER": 5.4612, "MEAN_ANOMALY": 354.6653, "EPHEMERIS_TYPE": 0, "CLASSIFICATION_TYPE": "U", "NORAD_CAT_ID": 41601, "ELEMENT_SET_NO": 999, "REV_AT_EPOCH": 52978, "BSTAR": 0.00023548573, "MEAN_MOTION_DOT": 7.354e-05, "MEAN_MOTION_DDOT": 0}, "tle": {"line1": "1 41601U 16040C   25350.05070864  .00007354  00000+0  23549-3 0  9992", "line2": "2 41601  96.9827  26.8781 0001985   5.4612 354.6653 15.32653167529780"}}, "geometry": {"type": "Point", "coordinates": [25.909450223448417, 14.161352417019716]}}, {"type": "Feature", "properties": {"norad_id": 41603, "name": "LAPAN-A3", "group": "resource", "lat": 37.2742010818395, "lon": 173.78368601597296, "alt_km": 474.82239311275407, "timestamp": "2025-12-16T21:38:56.827106+00:00", "meta": {"OBJECT_NAME": "LAPAN-A3", "OBJECT_ID": "2016-040E", "EPOCH": "2025-12-16T08:29:07.323072", "MEAN_MOTION": 15.31582475, "ECCENTRICITY": 0.00092837, "INCLINATION": 97.1425, "RA_OF_ASC_NODE": 347.7785, "ARG_OF_PERICENTER": 319.5312, "MEAN_ANOMALY": 40.5239, "EPHEMERIS_TYPE": 0, "CLASSIFICATION_TYPE": "U", "NORAD_CAT_ID": 41603, "ELEMENT_SET_NO": 999, "REV_AT_EPOCH": 52681, "BSTAR": 0.00011519265, "MEAN_MOTION_DOT": 3.443e-05, "MEAN_MOTION_DDOT": 0}, "tle": {"line1": "1 41603U 16040E   25350.35355698  .00003443  00000+0  11519-3 0  9997", "line2": "2 41603  97.1425 347.7785 0009283 319.5312  40.5239 15.31582475526817"}}, "geometry": {"type": "Point", "coordinates": [173.78368601597296, 37.2742010818395]}}, {"type": "Feature", "properties": {"norad_id": 41604, "name": "BIROS", "group": "resource", "lat": 51.52842653198141, "lon": -148.51047777169833, "alt_km": 291.54270394306786, "timestamp": "2025-12-16T21:38:56.827116+00:00", "meta": {"OBJECT_NAME": "BIROS", "OBJECT_ID": "2016-040F", "EPOCH": "2025-12-16T01:29:29.872320", "MEAN_MOTION": 15.90996477, "ECCENTRICITY": 0.00037377, "INCLINATION": 97.0676, "RA_OF_ASC_NODE": 21.631, "ARG_OF_PERICENTER": 140.4521, "MEAN_ANOMALY": 219.7027, "EPHEMERIS_TYPE": 0, "CLASSIFICATION_TYPE": "U", "NORAD_CAT_ID": 41604, "ELEMENT_SET_NO": 999, "REV_AT_EPOCH": 52925, "BSTAR": 0.00052095217, "MEAN_MOTION_DOT": 0.00162352, "MEAN_MOTION_DDOT": 1.1585075e-05}, "tle": {"line1": "1 41604U 16040F   25350.06215130  .00162352  11585-4  52095-3 0  9996", "line2": "2 41604  97.0676  21.6310 0003737 140.4521 219.7027 15.90996477529250"}}, "geometry": {"type": "Point", "coordinates": [-148.51047777169833, 51.52842653198141]}}, {"type": "Feature", "properties": {"norad_id": 41727, "name": "GAOFEN-3", "group": "resource", "lat": 22.620935152185066, "lon": -7.106469796091518, "alt_km": 750.0308888507361, "timestamp": "2025-12-16T21:38:56.827126+00:00", "meta": {"OBJECT_NAME": "GAOFEN-3", "OBJECT_ID": "2016-049A", "EPOCH": "2025-12-16T06:33:27.770976", "MEAN_MOTION": 14.42214761, "ECCENTRICITY": 0.00013251, "INCLINATION": 98.4042, "RA_OF_ASC_NODE": 355.8061, "ARG_OF_PERICENTER": 59.2632, "MEAN_ANOMALY": 300.8688, "EPHEMERIS_TYPE": 0, "CLASSIFICATION_TYPE": "U", "NORAD_CAT_ID": 41727, "ELEMENT_SET_NO": 999, "REV_AT_EPOCH": 49228, "BSTAR": 3.45362e-05, "MEAN_MOTION_DOT": 7e-07, "MEAN_MOTION_DDOT": 0}, "tle": {"line1": "1 41727U 16049A   25350.27323809  .00000070  00000+0  34536-4 0  9991", "line2": "2 41727  98.4042 355.8061 0001325  59.2632 300.8688 14.42214761492286"}}, "geometry": {"type": "Point", "coordinates": [-7.106469796091518, 22.620935152185066]}}, {"type": "Feature", "properties": {"norad_id": 41771, "name": "SKYSAT-C4", "group": "resource", "lat": 81.7657573006246, "lon": -106.82309359760308, "alt_km": 430.68113438283854, "timestamp": "2025-12-16T21:38:56.827136+00:00", "meta": {"OBJECT_NAME": "SKYSAT-C4", "OBJECT_ID": "2016-058B", "EPOCH": "2025-12-16T00:59:56.882112", "MEAN_MOTION": 15.42347655, "ECCENTRICITY": 0.00018152, "INCLINATION": 96.9374, "RA_OF_ASC_NODE": 15.0689, "ARG_OF_PERICENTER": 132.6391, "MEAN_ANOMALY": 227.5011, "EPHEMERIS_TYPE": 0, "CLASSIFICATION_TYPE": "U", "NORAD_CAT_ID": 41771, "ELEMENT_SET_NO": 999, "REV_AT_EPOCH": 51718, "BSTAR": 0.00026423992, "MEAN_MOTION_DOT": 0.00011318, "MEAN_MOTION_DDOT": 0}, "tle": {"line1": "1 41771U 16058B   25350.04163058  .00011318  00000+0  26424-3 0  9996", "line2": "2 41771  96.9374  15.0689 0001815 132.6391 227.5011 15.42347655517181"}}, "geometry": {"type": "Point", "coordinates": [-106.82309359760308, 81.7657573006246]}}, {"type": "Feature", "properties": {"norad_id": 41772, "name": "SKYSAT-C5", "group": "resource", "lat": -66.83040817075306, "lon": -162.39273753759684, "alt_km": 469.03874869557694, "timestamp": "2025-12-16T21:38:56.827146+00:00", "meta": {"OBJECT_NAME": "SKYSAT-C5", "OBJECT_ID": "2016-058C", "EPOCH": "2025-12-16T03:20:59.438976", "MEAN_MOTION": 15.33938738, "ECCENTRICITY": 0.00037842, "INCLINATION": 97.0765, "RA_OF_ASC_NODE": 33.7507, "ARG_OF_PERICENTER": 279.064, "MEAN_ANOMALY": 81.0175, "EPHEMERIS_TYPE": 0, "CLASSIFICATION_TYPE": "U", "NORAD_CAT_ID": 41772, "ELEMENT_SET_NO": 999, "REV_AT_EPOCH": 51568, "BSTAR": 0.00027996502, "MEAN_MOTION_DOT": 9.12e-05, "MEAN_MOTION_DDOT": 0}, "tle": {"line1": "1 41772U 16058C   25350.13957684  .00009120  00000+0  27997-3 0  9997", "line2": "2 41772  97.0765  33.7507 0003784 279.0640  81.0175 15.33938738515689"}}, "geometry": {"type": "Point", "coordinates": [-162.39273753759684, -66.83040817075306]}}, {"type": "Feature", "properties": {"norad_id": 41773, "name": "SKYSAT-C2", "group": "resource", "lat": -54.98357265150837, "lon": 25.40683417632534, "alt_km": 460.47749370520796, "timestamp": "2025-12-16T21:38:56.827156+00:00", "meta": {"OBJECT_NAME": "SKYSAT-C2", "OBJECT_ID": "2016-058D", "EPOCH": "2025-12-16T01:34:57.592704", "MEAN_MOTION": 15.37349108, "ECCENTRICITY": 0.00038859, "INCLINATION": 97.0363, "RA_OF_ASC_NODE": 14.4522, "ARG_OF_PERICENTER": 26.1288, "MEAN_ANOMALY": 334.0153, "EPHEMERIS_TYPE": 0, "CLASSIFICATION_TYPE": "U", "NORAD_CAT_ID": 41773, "ELEMENT_SET_NO": 999, "REV_AT_EPOCH": 51687, "BSTAR": 0.00024218094, "MEAN_MOTION_DOT": 8.79e-05, "MEAN_MOTION_DDOT": 0}, "tle": {"line1": "1 41773U 16058D   25350.06594436  .00008790  00000+0  24218-3 0  9997", "line2": "2 41773  97.0363  14.4522 0003885  26.1288 334.0153 15.37349108516878"}}, "geometry": {"type": "Point", "coordinates": [25.40683417632534, -54.98357265150837]}}]}